OBJECT_NAME,OBJECT_ID,EPOCH,MEAN_MOTION,ECCENTRICITY,INCLINATION,RA_OF_ASC_NODE,ARG_OF_PERICENTER,MEAN_ANOMALY,EPHEMERIS_TYPE,CLASSIFICATION_TYPE,NORAD_CAT_ID,ELEMENT_SET_NO,REV_AT_EPOCH,BSTAR,MEAN_MOTION_DOT,MEAN_MOTION_DDOT
LINGQIAO VIDEO A,2015-057B,2026-07-14T04:21:35.574336,14.77425081,.0016569,97.6626,188.6538,176.2784,183.8554,0,U,40959,999,57939,.18847E-4,.86E-6,0
LINGQIAO VIDEO B,2015-057C,2026-07-14T05:22:44.063040,14.77533139,.0016761,97.6591,189.8505,176.1604,183.9739,0,U,40960,999,57944,.12519E-3,.847E-5,0
JILIN-1,2015-057D,2026-07-14T03:47:16.033344,14.78200523,.0017129,97.6519,193.1871,170.2251,189.9298,0,U,40961,999,57959,.62416E-4,.405E-5,0
FOX-1A (AO-85),2015-058D,2026-07-14T04:21:11.801376,14.91084963,.0132264,64.7724,195.0853,46.1915,315.0044,0,U,40967,999,11759,.16126E-3,.1712E-4,0
SINOD-D 1,2015-058E,2026-07-14T02:03:12.529152,14.96081529,.0120966,64.7733,174.6652,42.5767,318.4648,0,U,40968,999,12068,.23189E-3,.2845E-4,0
ELEKTRO-L 2,2015-074A,2026-07-13T23:52:55.362144,1.00272120,.0000974,6.7582,70.1887,214.5456,350.8546,0,U,41105,999,3877,0,-.128E-5,0
DAMPE,2015-078A,2026-07-14T03:57:16.071840,15.30851650,.0011675,97.4559,200.7656,349.3147,10.7844,0,U,41173,999,58867,.23938E-4,.637E-5,0
ORBCOMM FM110,2015-081D,2026-07-14T02:05:14.722944,14.58917166,.0003559,47.0007,234.2501,218.6443,141.4189,0,U,41182,999,56155,.70352E-4,.161E-5,0
ORBCOMM FM112,2015-081F,2026-07-14T04:39:13.263264,14.58937849,.0003747,46.9979,142.5348,324.3551,35.7084,0,U,41184,999,56289,.10101E-3,.307E-5,0
ORBCOMM FM113,2015-081G,2026-07-13T23:11:02.931360,14.58881339,.0002291,46.9998,144.0028,316.8061,43.2645,0,U,41185,999,56284,.61583E-4,.12E-5,0
ORBCOMM FM108,2015-081J,2026-07-13T23:54:58.526208,14.58909612,.0002725,47.0054,55.4394,317.7422,42.3254,0,U,41187,999,56399,.95665E-4,.281E-5,0
ORBCOMM FM117,2015-081K,2026-07-14T00:44:14.178624,14.58896753,.0003142,47.0017,53.9050,325.0057,35.0622,0,U,41188,999,56404,.91426E-4,.261E-5,0
ORBCOMM FM116,2015-081L,2026-07-13T06:10:51.074112,14.58904456,.0001541,47.0013,147.3497,225.9507,134.1252,0,U,41189,999,56274,.50849E-4,.69E-6,0
ZIYUAN 3-02 (ZY 3-02),2016-033A,2026-07-14T05:21:13.038048,15.21429113,.0013961,97.3831,270.4773,188.2758,171.8249,0,U,41556,999,56209,.144E-3,.3171E-4,0
CARTOSAT-2C,2016-040A,2026-07-14T04:43:13.614240,15.19259257,.0009592,97.4473,254.8007,48.5812,311.6245,0,U,41599,999,55781,.94813E-4,.1932E-4,0
LAPAN-A3,2016-040E,2026-07-14T05:04:06.403872,15.33274204,.0008266,97.1504,190.4735,280.5553,79.4759,0,U,41603,999,55895,.62632E-4,.194E-4,0
GAOFEN-3,2016-049A,2026-07-14T05:03:29.097216,14.42218953,.0001784,98.4012,202.5889,85.8823,274.2571,0,U,41727,999,52254,.40742E-4,.91E-6,0
CAS-2T & KS-1Q,2016-066G,2026-07-14T04:21:32.777568,14.44769101,.0342292,98.3813,270.6089,47.8306,315.1423,0,U,41847,999,50869,.87908E-4,.568E-5,0
YUNHAI-1 01,2016-068A,2026-07-14T04:42:16.338816,14.32722146,.0003277,98.5845,205.9517,351.6928,8.4201,0,U,41857,999,50569,.13206E-3,.315E-5,0
RESOURCESAT-2A,2016-074A,2026-07-14T04:01:57.268416,14.21608535,.0002434,98.7528,268.4505,31.4676,328.6647,0,U,41877,999,49813,.10905E-4,-.2E-6,0
TANSAT,2016-081A,2026-07-14T04:23:16.701216,14.59971523,.0019371,98.5365,196.2395,223.4217,136.5457,0,U,41898,999,50856,.77223E-4,.32E-5,0
JILIN-1 03,2017-002B,2026-07-14T05:13:46.345728,15.42215576,.0007908,97.1945,201.9331,82.0483,278.1662,0,U,41914,999,52602,.19041E-3,.8099E-4,0
CARTOSAT-2D,2017-008A,2026-07-14T03:54:08.284032,15.19282760,.0005892,97.4099,253.9624,142.0490,218.1161,0,U,41948,999,52167,.17425E-3,.3609E-4,0
CARTOSAT-2E,2017-036C,2026-07-14T04:19:41.710368,15.19251181,.0003154,97.4263,254.5358,193.3081,166.8071,0,U,42767,999,50224,.15868E-3,.3277E-4,0
